ORBCOMM-X               
1 21576U 91050C   25154.16503092  .00000470  00000+0  15243-3 0  9997
2 21576  98.3439 221.0488 0002835 210.4144 149.6882 14.43253450780091
ORBCOMM FM01            
1 23545U 95017A   25154.57193328  .00011175  00000+0  11653-2 0  9998
2 23545  69.9626 108.0816 0004996 299.5606  60.5050 14.89945737610480
ORBCOMM FM02            
1 23546U 95017B   25154.32103455  .00012195  00000+0  12451-2 0  9994
2 23546  69.9636 128.1419 0006247 307.5782  52.4805 14.90759192610095
ORBCOMM FM08            
1 25112U 97084A   25154.49906979  .00002491  00000+0  73589-3 0  9999
2 25112  45.0138  73.5700 0004911 183.4242 176.6577 14.45776390439398
ORBCOMM FM10            
1 25113U 97084B   25154.13263594  .00002376  00000+0  70714-3 0  9999
2 25113  45.0148  77.6851 0003274 134.5943 225.5176 14.45563029614485
ORBCOMM FM11            
1 25114U 97084C   25154.48035171  .00002459  00000+0  73414-3 0  9998
2 25114  45.0136  76.6245 0004055 140.7683 219.3463 14.45317457439495
ORBCOMM FM12            
1 25115U 97084D   25154.30480440  .00002098  00000+0  63195-3 0  9997
2 25115  45.0142  77.2183 0003079 133.5772 226.5335 14.45336506439264
ORBCOMM FM09            
1 25116U 97084E   25154.47417838  .00002495  00000+0  74562-3 0  9998
2 25116  45.0146  77.3249 0004564 123.0842 237.0448 14.45215119439498
